[{"OBJECT_NAME":"OBJECT L","OBJECT_ID":"2023-085L","EPOCH":"2026-03-09T23:02:21.999840","MEAN_MOTION":15.29079976,"ECCENTRICITY":0.0005428,"INCLINATION":97.486,"RA_OF_ASC_NODE":178.8598,"ARG_OF_PERICENTER":50.8528,"MEAN_ANOMALY":309.3193,"EPHEMERIS_TYPE":0,"CLASSIFICATION_TYPE":"U","NORAD_CAT_ID":57014,"ELEMENT_SET_NO":999,"REV_AT_EPOCH":15144,"BSTAR":0.00063462603,"MEAN_MOTION_DOT":0.00017871,"MEAN_MOTION_DDOT":0},{"OBJECT_NAME":"STARLINK-33838","OBJECT_ID":"2025-071H","EPOCH":"2026-03-09T12:11:40.786080","MEAN_MOTION":15.30209781,"ECCENTRICITY":9.208e-5,"INCLINATION":53.1592,"RA_OF_ASC_NODE":140.6553,"ARG_OF_PERICENTER":130.4958,"MEAN_ANOMALY":229.6123,"EPHEMERIS_TYPE":0,"CLASSIFICATION_TYPE":"U","NORAD_CAT_ID":63500,"ELEMENT_SET_NO":999,"REV_AT_EPOCH":5253,"BSTAR":0.00072192791,"MEAN_MOTION_DOT":0.00021089,"MEAN_MOTION_DDOT":0}]
